[{"OBJECT_NAME":"JAS-2 (FO-29)","OBJECT_ID":"1996-046B","EPOCH":"2026-03-09T13:44:47.452416","MEAN_MOTION":13.53268683,"ECCENTRICITY":0.0349827,"INCLINATION":98.5379,"RA_OF_ASC_NODE":291.0082,"ARG_OF_PERICENTER":355.0722,"MEAN_ANOMALY":4.7008,"EPHEMERIS_TYPE":0,"CLASSIFICATION_TYPE":"U","NORAD_CAT_ID":24278,"ELEMENT_SET_NO":999,"REV_AT_EPOCH":45969,"BSTAR":2.6197e-5,"MEAN_MOTION_DOT":-1.1e-7,"MEAN_MOTION_DDOT":0},{"OBJECT_NAME":"SL-8 R\/B","OBJECT_ID":"1975-034B","EPOCH":"2026-03-09T20:02:45.798720","MEAN_MOTION":13.75170621,"ECCENTRICITY":0.00172093,"INCLINATION":82.966,"RA_OF_ASC_NODE":168.027,"ARG_OF_PERICENTER":304.888,"MEAN_ANOMALY":174.3524,"EPHEMERIS_TYPE":0,"CLASSIFICATION_TYPE":"U","NORAD_CAT_ID":7769,"ELEMENT_SET_NO":999,"REV_AT_EPOCH":55205,"BSTAR":8.4294897e-5,"MEAN_MOTION_DOT":9.6e-7,"MEAN_MOTION_DDOT":0}]
